OBJECT_NAME,OBJECT_ID,EPOCH,MEAN_MOTION,ECCENTRICITY,INCLINATION,RA_OF_ASC_NODE,ARG_OF_PERICENTER,MEAN_ANOMALY,EPHEMERIS_TYPE,CLASSIFICATION_TYPE,NORAD_CAT_ID,ELEMENT_SET_NO,REV_AT_EPOCH,BSTAR,MEAN_MOTION_DOT,MEAN_MOTION_DDOT
STARLINK-37247,2026-154S,2026-07-14T20:00:01.999008,15.87372232,.0001258,53.1587,294.6662,65.0143,84.6525,0,U,69835,999,271,-.71509E-2,-.1677528E-1,0
STARLINK-37569,2026-154T,2026-07-14T20:00:01.999008,15.87516001,.0001271,53.1585,294.6594,63.1418,89.8597,0,U,69836,999,261,-.70802E-2,-.1673574E-1,0
STARLINK-37587,2026-154U,2026-07-14T20:00:01.999008,15.87600317,.0001131,53.1587,294.6514,55.6669,101.1739,0,U,69837,999,258,-.70583E-2,-.1675075E-1,0
STARLINK-37590,2026-154V,2026-07-14T20:00:01.999008,15.87709859,.0001435,53.1586,294.6442,72.6667,87.6576,0,U,69838,999,245,-.69316E-2,-.1657098E-1,0
STARLINK-37589,2026-154W,2026-07-14T20:00:01.999008,15.87835302,.0001044,53.1584,294.6367,55.0264,108.8968,0,U,69839,999,258,-.69786E-2,-.1675642E-1,0
STARLINK-37487,2026-154X,2026-07-14T20:00:01.999008,15.95412791,.0000823,53.1575,294.3442,57.9921,245.9644,0,U,69840,999,258,-.38185E-2,-.154804E-1,.70136E-3
STARLINK-37433,2026-154Y,2026-07-14T20:00:01.999008,15.95439561,.0000977,53.1575,294.3314,63.8071,246.2885,0,U,69841,999,271,-.36699E-2,-.1490726E-1,.65469E-3
STARLINK-37588,2026-154Z,2026-07-14T20:00:01.999008,15.95531403,.0000805,53.1573,294.3177,56.9473,259.7115,0,U,69842,999,261,-.39633E-2,-.1616118E-1,.75995E-3
STARLINK-37579,2026-154AA,2026-07-14T20:00:01.999008,15.95602947,.0000761,53.1574,294.2993,59.1454,266.2755,0,U,69843,999,261,-.4482E-2,-.1831602E-1,.95833E-3
STARLINK-37584,2026-154AB,2026-07-14T20:00:01.999008,15.95637304,.0000792,53.1575,294.2879,57.1121,273.7091,0,U,69844,999,261,-.45717E-2,-.1871187E-1,.99755E-3
STARLINK-37606,2026-154AC,2026-07-14T20:00:01.999008,15.95637899,.0000844,53.1573,294.2742,60.5672,276.7311,0,U,69845,999,261,-.46555E-2,-.1905116E-1,.10315E-2
STARLINK-37603,2026-154AD,2026-07-14T20:00:01.999008,15.95606960,.000082,53.1574,294.2579,60.4114,284.6122,0,U,69846,999,261,-.4777E-2,-.1950926E-1,.1078E-2
STARLINK-37595,2026-154AE,2026-07-14T20:00:01.999008,15.95623428,.0000791,53.1572,294.2464,56.3099,294.0928,0,U,69847,999,261,-.47998E-2,-.1961846E-1,.10895E-2
QIANFAN-219,2026-155A,2026-07-14T14:10:42.470112,14.21655067,.0029474,89.0062,61.0151,229.1988,130.6646,0,U,69848,999,129,-.83718E+0,-.1706334E-1,0
QIANFAN-220,2026-155B,2026-07-14T14:17:36.536064,14.18092924,.0035628,89.0051,61.0153,220.3335,139.5211,0,U,69849,999,129,-.10643E+1,-.2031065E-1,0
QIANFAN-221,2026-155C,2026-07-14T19:15:40.313088,14.26646214,.0030252,89.0066,60.9913,225.0980,134.7758,0,U,69850,999,132,.23638E-4,.72E-6,0
QIANFAN-222,2026-155D,2026-07-14T14:16:17.514624,14.18787335,.0034609,89.0061,61.0163,225.6726,134.1625,0,U,69851,999,129,-.10143E+1,-.1965196E-1,0
QIANFAN-223,2026-155E,2026-07-14T14:14:01.927104,14.20529596,.0030194,89.0049,61.0154,225.2731,134.6001,0,U,69852,999,129,-.10275E+1,-.2047514E-1,0
QIANFAN-224,2026-155F,2026-07-14T12:32:03.450624,14.19680058,.0034182,89.0054,61.0235,229.2006,130.6218,0,U,69853,999,128,-.94633E+0,-.1870987E-1,0
QIANFAN-225,2026-155G,2026-07-14T15:51:54.180000,14.22457896,.0026722,89.0060,61.0064,229.1560,130.7315,0,U,69854,999,130,-.93627E+0,-.1940958E-1,0
QIANFAN-226,2026-155H,2026-07-14T15:51:13.032000,14.22636125,.0027158,89.0063,61.0074,227.2474,132.6432,0,U,69855,999,130,-.90615E+0,-.1888898E-1,0
QIANFAN-227,2026-155J,2026-07-14T15:50:29.482080,14.21733202,.0029283,89.0049,61.0060,227.9973,131.8725,0,U,69856,999,130,-.81608E+0,-.1668555E-1,0
QIANFAN-228,2026-155K,2026-07-14T17:34:08.738976,14.26683603,.0030347,89.0070,60.9992,225.1859,134.6868,0,U,69857,999,131,.23551E-4,.72E-6,0
QIANFAN-229,2026-155L,2026-07-14T14:12:04.962240,14.26734062,.0030269,89.0067,61.0152,225.7567,134.1142,0,U,69858,999,129,.99869E-4,.257E-5,0
QIANFAN-230,2026-155M,2026-07-14T15:58:30.172800,14.18156605,.0034394,89.0057,61.0078,220.0661,139.7991,0,U,69859,999,130,-.99924E+0,-.1916728E-1,0
QIANFAN-231,2026-155N,2026-07-14T17:37:14.161152,14.26095391,.0030456,89.0068,60.9997,224.2485,135.6274,0,U,69860,999,131,.76742E-4,.199E-5,0
QIANFAN-232,2026-155P,2026-07-14T17:34:02.397216,14.26735207,.0030254,89.0066,60.9991,225.6170,134.2546,0,U,69861,999,131,.88785E-4,.23E-5,0
QIANFAN-233,2026-155Q,2026-07-14T19:14:54.432960,14.26751064,.0030226,89.0066,60.9911,225.1740,134.6997,0,U,69862,999,132,.77193E-4,.202E-5,0
QIANFAN-234,2026-155R,2026-07-14T19:14:50.792928,14.26757675,.0030198,89.0068,60.9912,225.1727,134.7012,0,U,69863,999,132,.766E-4,.201E-5,0
QIANFAN-235,2026-155S,2026-07-14T10:47:10.344192,14.22168524,.0028514,89.0060,61.0313,225.1825,134.7048,0,U,69864,999,127,-.84196E+0,-.1730414E-1,0
