STARLINK-37247          
1 69835U 26154S   26195.83335647 -.01677528  00000+0 -71509-2 0  9992
2 69835  53.1587 294.6662 0001258  65.0143  84.6525 15.87372232  2712
STARLINK-37569          
1 69836U 26154T   26195.83335647 -.01673574  00000+0 -70802-2 0  9995
2 69836  53.1585 294.6594 0001271  63.1418  89.8597 15.87516001  2613
STARLINK-37587          
1 69837U 26154U   26195.83335647 -.01675075  00000+0 -70583-2 0  9990
2 69837  53.1587 294.6514 0001131  55.6669 101.1739 15.87600317  2583
STARLINK-37590          
1 69838U 26154V   26195.83335647 -.01657098  00000+0 -69316-2 0  9998
2 69838  53.1586 294.6442 0001435  72.6667  87.6576 15.87709859  2451
STARLINK-37589          
1 69839U 26154W   26195.83335647 -.01675642  00000+0 -69786-2 0  9995
2 69839  53.1584 294.6367 0001044  55.0264 108.8968 15.87835302  2588
STARLINK-37487          
1 69840U 26154X   26195.83335647 -.01548040  70136-3 -38185-2 0  9998
2 69840  53.1575 294.3442 0000823  57.9921 245.9644 15.95412791  2582
STARLINK-37433          
1 69841U 26154Y   26195.83335647 -.01490726  65469-3 -36699-2 0  9997
2 69841  53.1575 294.3314 0000977  63.8071 246.2885 15.95439561  2713
STARLINK-37588          
1 69842U 26154Z   26195.83335647 -.01616118  75995-3 -39633-2 0  9999
2 69842  53.1573 294.3177 0000805  56.9473 259.7115 15.95531403  2610
STARLINK-37579          
1 69843U 26154AA  26195.83335647 -.01831602  95833-3 -44820-2 0  9994
2 69843  53.1574 294.2993 0000761  59.1454 266.2755 15.95602947  2617
STARLINK-37584          
1 69844U 26154AB  26195.83335647 -.01871187  99755-3 -45717-2 0  9990
2 69844  53.1575 294.2879 0000792  57.1121 273.7091 15.95637304  2616
STARLINK-37606          
1 69845U 26154AC  26195.83335647 -.01905116  10315-2 -46555-2 0  9996
2 69845  53.1573 294.2742 0000844  60.5672 276.7311 15.95637899  2618
STARLINK-37603          
1 69846U 26154AD  26195.83335647 -.01950926  10780-2 -47770-2 0  9992
2 69846  53.1574 294.2579 0000820  60.4114 284.6122 15.95606960  2615
STARLINK-37595          
1 69847U 26154AE  26195.83335647 -.01961846  10895-2 -47998-2 0  9995
2 69847  53.1572 294.2464 0000791  56.3099 294.0928 15.95623428  2617
QIANFAN-219             
1 69848U 26155A   26195.59076933 -.01706334  00000+0 -83718+0 0  9990
2 69848  89.0062  61.0151 0029474 229.1988 130.6646 14.21655067  1296
QIANFAN-220             
1 69849U 26155B   26195.59556176 -.02031065  00000+0 -10643+1 0  9994
2 69849  89.0051  61.0153 0035628 220.3335 139.5211 14.18092924  1293
QIANFAN-221             
1 69850U 26155C   26195.80254992  .00000072  00000+0  23638-4 0  9993
2 69850  89.0066  60.9913 0030252 225.0980 134.7758 14.26646214  1322
QIANFAN-222             
1 69851U 26155D   26195.59464716 -.01965196  00000+0 -10143+1 0  9990
2 69851  89.0061  61.0163 0034609 225.6726 134.1625 14.18787335  1295
QIANFAN-223             
1 69852U 26155E   26195.59307786 -.02047514  00000+0 -10275+1 0  9996
2 69852  89.0049  61.0154 0030194 225.2731 134.6001 14.20529596  1298
QIANFAN-224             
1 69853U 26155F   26195.52226216 -.01870987  00000+0 -94633+0 0  9994
2 69853  89.0054  61.0235 0034182 229.2006 130.6218 14.19680058  1289
QIANFAN-225             
1 69854U 26155G   26195.66104375 -.01940958  00000+0 -93627+0 0  9999
2 69854  89.0060  61.0064 0026722 229.1560 130.7315 14.22457896  1300
QIANFAN-226             
1 69855U 26155H   26195.66056750 -.01888898  00000+0 -90615+0 0  9991
2 69855  89.0063  61.0074 0027158 227.2474 132.6432 14.22636125  1307
QIANFAN-227             
1 69856U 26155J   26195.66006345 -.01668555  00000+0 -81608+0 0  9995
2 69856  89.0049  61.0060 0029283 227.9973 131.8725 14.21733202  1308
QIANFAN-228             
1 69857U 26155K   26195.73204559  .00000072  00000+0  23551-4 0  9990
2 69857  89.0070  60.9992 0030347 225.1859 134.6868 14.26683603  1315
QIANFAN-229             
1 69858U 26155L   26195.59172410  .00000257  00000+0  99869-4 0  9995
2 69858  89.0067  61.0152 0030269 225.7567 134.1142 14.26734062  1290
QIANFAN-230             
1 69859U 26155M   26195.66562700 -.01916728  00000+0 -99924+0 0  9998
2 69859  89.0057  61.0078 0034394 220.0661 139.7991 14.18156605  1300
QIANFAN-231             
1 69860U 26155N   26195.73419168  .00000199  00000+0  76742-4 0  9998
2 69860  89.0068  60.9997 0030456 224.2485 135.6274 14.26095391  1310
QIANFAN-232             
1 69861U 26155P   26195.73197219  .00000230  00000+0  88785-4 0  9995
2 69861  89.0066  60.9991 0030254 225.6170 134.2546 14.26735207  1319
QIANFAN-233             
1 69862U 26155Q   26195.80201890  .00000202  00000+0  77193-4 0  9995
2 69862  89.0066  60.9911 0030226 225.1740 134.6997 14.26751064  1323
QIANFAN-234             
1 69863U 26155R   26195.80197677  .00000201  00000+0  76600-4 0  9994
2 69863  89.0068  60.9912 0030198 225.1727 134.7012 14.26757675  1323
QIANFAN-235             
1 69864U 26155S   26195.44942528 -.01730414  00000+0 -84196+0 0  9991
2 69864  89.0060  61.0313 0028514 225.1825 134.7048 14.22168524  1279
